*******************************************************************************
Ephemeris / WWW_USER Tue Mar 27 20:39:56 2018 Pasadena, USA      / Horizons    
*******************************************************************************
Target body name: Saturn Barycenter (6)           {source: DE431mx}
Center body name: Solar System Barycenter (0)     {source: DE431mx}
Center-site name: BODY CENTER
*******************************************************************************
Start time      : A.D. 2000-Jan-01 00:00:00.0000 TDB
Stop  time      : A.D. 2001-Jan-01 00:00:00.0000 TDB
Step-size       : 7200 minutes
*******************************************************************************
Center geodetic : 0.00000000,0.00000000,0.0000000 {E-lon(deg),Lat(deg),Alt(km)}
Center cylindric: 0.00000000,0.00000000,0.0000000 {E-lon(deg),Dxy(km),Dz(km)}
Center radii    : (undefined)                                                  
Output units    : AU-D                                                         
Output type     : GEOMETRIC cartesian states
Output format   : 2 (position and velocity)
Reference frame : ICRF/J2000.0                                                 
Coordinate systm: Ecliptic and Mean Equinox of Reference Epoch                 
*******************************************************************************
JDTDB
   X     Y     Z
   VX    VY    VZ
*******************************************************************************
$$SOE
2451754.500000000 = A.D. 2000-Jul-29 00:00:00.0000 TDB 
   5.449593909310396E+00  7.322826194003675E+00 -3.442571605607654E-01
  -4.767576250890567E-03  3.319279108021343E-03  1.318572057286743E-04
2451759.500000000 = A.D. 2000-Aug-03 00:00:00.0000 TDB 
   5.425729518971445E+00  7.339386920959499E+00 -3.435961945450527E-01
  -4.778172740860442E-03  3.305005603180535E-03  1.325290214020843E-04
2451764.500000000 = A.D. 2000-Aug-08 00:00:00.0000 TDB 
   5.401812253463327E+00  7.355876189440591E+00 -3.429318721456066E-01
  -4.788726293918987E-03  3.290695741424523E-03  1.331997577584319E-04
2451769.500000000 = A.D. 2000-Aug-13 00:00:00.0000 TDB 
   5.377842327839915E+00  7.372293818012276E+00 -3.422641987809622E-01
  -4.799236762392100E-03  3.276349662805775E-03  1.338694060186338E-04
2451774.500000000 = A.D. 2000-Aug-18 00:00:00.0000 TDB 
   5.353819957892663E+00  7.388639625941495E+00 -3.415931799135348E-01
  -4.809703998922335E-03  3.261967507912798E-03  1.345379574103009E-04
2451779.500000000 = A.D. 2000-Aug-23 00:00:00.0000 TDB 
   5.329745360148993E+00  7.404913433199450E+00 -3.409188210495806E-01
  -4.820127856482525E-03  3.247549417865467E-03  1.352054031693435E-04
2451784.500000000 = A.D. 2000-Aug-28 00:00:00.0000 TDB 
   5.305618751870623E+00  7.421115060464276E+00 -3.402411277391551E-01
  -4.830508188382317E-03  3.233095534312432E-03  1.358717345405820E-04
2451789.500000000 = A.D. 2000-Sep-02 00:00:00.0000 TDB 
   5.281440351051869E+00  7.437244329123661E+00 -3.395601055760646E-01
  -4.840844848274254E-03  3.218605999428463E-03  1.365369427782865E-04
2451794.500000000 = A.D. 2000-Sep-07 00:00:00.0000 TDB 
   5.257210376417912E+00  7.453301061277478E+00 -3.388757601978221E-01
  -4.851137690159889E-03  3.204080955910812E-03  1.372010191466545E-04
2451799.500000000 = A.D. 2000-Sep-12 00:00:00.0000 TDB 
   5.232929047423038E+00  7.469285079740368E+00 -3.381880972855903E-01
  -4.861386568397181E-03  3.189520546969088E-03  1.378639549201927E-04
2451804.500000000 = A.D. 2000-Sep-17 00:00:00.0000 TDB 
   5.208596584248834E+00  7.485196208044297E+00 -3.374971225641358E-01
  -4.871591337710392E-03  3.174924916320042E-03  1.385257413847192E-04
2451809.500000000 = A.D. 2000-Sep-22 00:00:00.0000 TDB 
   5.184213207802329E+00  7.501034270441056E+00 -3.368028418017626E-01
  -4.881751853199674E-03  3.160294208179790E-03  1.391863698381869E-04
2451814.500000000 = A.D. 2000-Sep-27 00:00:00.0000 TDB 
   5.159779139714089E+00  7.516799091904764E+00 -3.361052608102549E-01
  -4.891867970351298E-03  3.145628567258311E-03  1.398458315915626E-04
2451819.500000000 = A.D. 2000-Oct-02 00:00:00.0000 TDB 
   5.135294602336264E+00  7.532490498134307E+00 -3.354043854448062E-01
  -4.901939545047916E-03  3.130928138753910E-03  1.405041179696788E-04
2451824.500000000 = A.D. 2000-Oct-07 00:00:00.0000 TDB 
   5.110759818740576E+00  7.548108315555774E+00 -3.347002216039512E-01
  -4.911966433578816E-03  3.116193068347694E-03  1.411612203120745E-04
2451829.500000000 = A.D. 2000-Oct-12 00:00:00.0000 TDB 
   5.086175012716264E+00  7.563652371324853E+00 -3.339927752294866E-01
  -4.921948492650331E-03  3.101423502199349E-03  1.418171299741106E-04
2451834.500000000 = A.D. 2000-Oct-17 00:00:00.0000 TDB 
   5.061540408767973E+00  7.579122493329227E+00 -3.332820523063919E-01
  -4.931885579395958E-03  3.086619586943324E-03  1.424718383276661E-04
2451839.500000000 = A.D. 2000-Oct-22 00:00:00.0000 TDB 
   5.036856232113588E+00  7.594518510190925E+00 -3.325680588627431E-01
  -4.941777551386742E-03  3.071781469685836E-03  1.431253367620606E-04
2451844.500000000 = A.D. 2000-Oct-27 00:00:00.0000 TDB 
   5.012122708682027E+00  7.609840251268688E+00 -3.318508009696247E-01
  -4.951624266640079E-03  3.056909298004821E-03  1.437776166848527E-04
2451849.500000000 = A.D. 2000-Nov-01 00:00:00.0000 TDB 
   4.987340065110991E+00  7.625087546660319E+00 -3.311302847410380E-01
  -4.961425583626453E-03  3.042003219947252E-03  1.444286695221573E-04
2451854.500000000 = A.D. 2000-Nov-06 00:00:00.0000 TDB 
   4.962508528744682E+00  7.640260227205029E+00 -3.304065163338048E-01
  -4.971181361276202E-03  3.027063384026451E-03  1.450784867189621E-04
2451859.500000000 = A.D. 2000-Nov-11 00:00:00.0000 TDB 
   4.937628327631487E+00  7.655358124485745E+00 -3.296795019474769E-01
  -4.980891458987670E-03  3.012089939216631E-03  1.457270597397051E-04
2451864.500000000 = A.D. 2000-Nov-16 00:00:00.0000 TDB 
   4.912699690521597E+00  7.670381070831397E+00 -3.289492478242276E-01
  -4.990555736641965E-03  2.997083034942326E-03  1.463743800697835E-04
2451869.500000000 = A.D. 2000-Nov-21 00:00:00.0000 TDB 
   4.887722846864562E+00  7.685328899319163E+00 -3.282157602487519E-01
  -5.000174054616517E-03  2.982042821080648E-03  1.470204392167624E-04
2451874.500000000 = A.D. 2000-Nov-26 00:00:00.0000 TDB 
   4.862698026806791E+00  7.700201443776756E+00 -3.274790455481495E-01
  -5.009746273792129E-03  2.966969447966571E-03  1.476652287108091E-04
2451879.500000000 = A.D. 2000-Dec-01 00:00:00.0000 TDB 
   4.837625461189018E+00  7.714998538784706E+00 -3.267391100918119E-01
  -5.019272255558749E-03  2.951863066393621E-03  1.483087401048404E-04
2451884.500000000 = A.D. 2000-Dec-06 00:00:00.0000 TDB 
   4.812505381543740E+00  7.729720019678656E+00 -3.259959602913097E-01
  -5.028751861821553E-03  2.936723827613468E-03  1.489509649747264E-04
2451889.500000000 = A.D. 2000-Dec-11 00:00:00.0000 TDB 
   4.787338020092626E+00  7.744365722551652E+00 -3.252496026002745E-01
  -5.038184955007035E-03  2.921551883335315E-03  1.495918949195240E-04
2451894.500000000 = A.D. 2000-Dec-16 00:00:00.0000 TDB 
   4.762123609743901E+00  7.758935484256428E+00 -3.245000435142864E-01
  -5.047571398070310E-03  2.906347385722886E-03  1.502315215617373E-04
2451899.500000000 = A.D. 2000-Dec-21 00:00:00.0000 TDB 
   4.736862384089671E+00  7.773429142407661E+00 -3.237472895707522E-01
  -5.056911054502855E-03  2.891110487392940E-03  1.508698365478084E-04
2451904.500000000 = A.D. 2000-Dec-26 00:00:00.0000 TDB 
   4.711554577403231E+00  7.787846535384248E+00 -3.229913473487858E-01
  -5.066203788338886E-03  2.875841341412722E-03  1.515068315483510E-04
2451909.500000000 = A.D. 2000-Dec-31 00:00:00.0000 TDB 
   4.686200424636333E+00  7.802187502331536E+00 -3.222322234690870E-01
  -5.075449464163541E-03  2.860540101296811E-03  1.521424982583620E-04
